{
  "type": "FeatureCollection",
  "features": [
    {
      "type": "Feature",
      "properties": {
        "norad_id": 37781,
        "name": "HAIYANG-2A",
        "group": "resource",
        "lat": -12.769464333363945,
        "lon": 179.18701327494438,
        "alt_km": 973.0818735518596,
        "timestamp": "2025-12-26T14:28:47.345955+00:00",
        "meta_object_name": "HAIYANG-2A",
        "meta_object_id": "2011-043A",
        "meta_epoch": "2025-12-26T06:34:53.770944",
        "meta_mean_motion": 13.78836318,
        "meta_eccentricity": 0.00015737,
        "meta_inclination": 99.3382,
        "meta_ra_of_asc_node": 1.0001,
        "meta_arg_of_pericenter": 65.1633,
        "meta_mean_anomaly": 294.9682,
        "meta_ephemeris_type": 0,
        "meta_classification_type": "U",
        "meta_norad_cat_id": 37781,
        "meta_element_set_no": 999,
        "meta_rev_at_epoch": 72285,
        "meta_bstar": 2.365859e-05,
        "meta_mean_motion_dot": -2e-07,
        "meta_mean_motion_ddot": 0,
        "tle_line1": "1 37781U 11043A   25360.27423346 -.00000020  00000+0  23659-4 0  9993",
        "tle_line2": "2 37781  99.3382   1.0001 0001573  65.1633 294.9682 13.78836318722856"
      },
      "geometry": {
        "type": "Point",
        "coordinates": [
          179.18701327494438,
          -12.769464333363945
        ]
      }
    },
    {
      "type": "Feature",
      "properties": {
        "norad_id": 37791,
        "name": "RASAT",
        "group": "resource",
        "lat": 66.92472792348883,
        "lon": 70.21708048972161,
        "alt_km": 650.6459703161145,
        "timestamp": "2025-12-26T14:28:47.345966+00:00",
        "meta_object_name": "RASAT",
        "meta_object_id": "2011-044D",
        "meta_epoch": "2025-12-26T06:19:58.528704",
        "meta_mean_motion": 14.67927828,
        "meta_eccentricity": 0.00212292,
        "meta_inclination": 98.0639,
        "meta_ra_of_asc_node": 89.3203,
        "meta_arg_of_pericenter": 24.0189,
        "meta_mean_anomaly": 51.3751,
        "meta_ephemeris_type": 0,
        "meta_classification_type": "U",
        "meta_norad_cat_id": 37791,
        "meta_element_set_no": 999,
        "meta_rev_at_epoch": 76781,
        "meta_bstar": 0.00011691365,
        "meta_mean_motion_dot": 6.22e-06,
        "meta_mean_motion_ddot": 0,
        "tle_line1": "1 37791U 11044D   25360.26387186  .00000622  00000+0  11691-3 0  9994",
        "tle_line2": "2 37791  98.0639  89.3203 0021229  24.0189  51.3751 14.67927828767814"
      },
      "geometry": {
        "type": "Point",
        "coordinates": [
          70.21708048972161,
          66.92472792348883
        ]
      }
    },
    {
      "type": "Feature",
      "properties": {
        "norad_id": 37841,
        "name": "SRMSAT",
        "group": "resource",
        "lat": 18.162654096574993,
        "lon": 139.4653079595716,
        "alt_km": 840.6770904143059,
        "timestamp": "2025-12-26T14:28:47.345977+00:00",
        "meta_object_name": "SRMSAT",
        "meta_object_id": "2011-058D",
        "meta_epoch": "2025-12-26T02:10:29.616384",
        "meta_mean_motion": 14.11515861,
        "meta_eccentricity": 0.00119908,
        "meta_inclination": 19.9732,
        "meta_ra_of_asc_node": 27.151,
        "meta_arg_of_pericenter": 99.3628,
        "meta_mean_anomaly": 283.7397,
        "meta_ephemeris_type": 0,
        "meta_classification_type": "U",
        "meta_norad_cat_id": 37841,
        "meta_element_set_no": 999,
        "meta_rev_at_epoch": 73333,
        "meta_bstar": 9.1637558e-05,
        "meta_mean_motion_dot": 4.34e-06,
        "meta_mean_motion_ddot": 0,
        "tle_line1": "1 37841U 11058D   25360.09062056  .00000434  00000+0  91638-4 0  9993",
        "tle_line2": "2 37841  19.9732  27.1510 0011990  99.3628 283.7397 14.11515861733330"
      },
      "geometry": {
        "type": "Point",
        "coordinates": [
          139.4653079595716,
          18.162654096574993
        ]
      }
    },
    {
      "type": "Feature",
      "properties": {
        "norad_id": 38012,
        "name": "PLEIADES 1A",
        "group": "resource",
        "lat": 61.457569685450935,
        "lon": -91.50776295020552,
        "alt_km": 691.2212090772136,
        "timestamp": "2025-12-26T14:28:47.345986+00:00",
        "meta_object_name": "PLEIADES 1A",
        "meta_object_id": "2011-076F",
        "meta_epoch": "2025-12-26T06:03:52.828992",
        "meta_mean_motion": 14.58573279,
        "meta_eccentricity": 0.00010645,
        "meta_inclination": 98.1804,
        "meta_ra_of_asc_node": 72.8118,
        "meta_arg_of_pericenter": 78.425,
        "meta_mean_anomaly": 358.9312,
        "meta_ephemeris_type": 0,
        "meta_classification_type": "U",
        "meta_norad_cat_id": 38012,
        "meta_element_set_no": 999,
        "meta_rev_at_epoch": 74678,
        "meta_bstar": 7.5361824e-05,
        "meta_mean_motion_dot": 3.05e-06,
        "meta_mean_motion_ddot": 0,
        "tle_line1": "1 38012U 11076F   25360.25269478  .00000305  00000+0  75362-4 0  9992",
        "tle_line2": "2 38012  98.1804  72.8118 0001064  78.4250 358.9312 14.58573279746784"
      },
      "geometry": {
        "type": "Point",
        "coordinates": [
          -91.50776295020552,
          61.457569685450935
        ]
      }
    },
    {
      "type": "Feature",
      "properties": {
        "norad_id": 38038,
        "name": "ZIYUAN 1-02C (ZY 1-02C)",
        "group": "resource",
        "lat": 77.90021791170284,
        "lon": 22.58259987237824,
        "alt_km": 752.6612046748132,
        "timestamp": "2025-12-26T14:28:47.345997+00:00",
        "meta_object_name": "ZIYUAN 1-02C (ZY 1-02C)",
        "meta_object_id": "2011-079A",
        "meta_epoch": "2025-12-26T07:50:12.489216",
        "meta_mean_motion": 14.38027273,
        "meta_eccentricity": 0.00075714,
        "meta_inclination": 98.4312,
        "meta_ra_of_asc_node": 66.0887,
        "meta_arg_of_pericenter": 103.111,
        "meta_mean_anomaly": 346.133,
        "meta_ephemeris_type": 0,
        "meta_classification_type": "U",
        "meta_norad_cat_id": 38038,
        "meta_element_set_no": 999,
        "meta_rev_at_epoch": 73436,
        "meta_bstar": 0.00020600241,
        "meta_mean_motion_dot": 5.8e-06,
        "meta_mean_motion_ddot": 0,
        "tle_line1": "1 38038U 11079A   25360.32653344  .00000580  00000+0  20600-3 0  9999",
        "tle_line2": "2 38038  98.4312  66.0887 0007571 103.1110 346.1330 14.38027273734363"
      },
      "geometry": {
        "type": "Point",
        "coordinates": [
          22.58259987237824,
          77.90021791170284
        ]
      }
    },
    {
      "type": "Feature",
      "properties": {
        "norad_id": 38338,
        "name": "ARIRANG-3 (KOMPSAT-3)",
        "group": "resource",
        "lat": 7.681459109971447,
        "lon": 136.43149578939403,
        "alt_km": 690.9907816802088,
        "timestamp": "2025-12-26T14:28:47.346007+00:00",
        "meta_object_name": "ARIRANG-3 (KOMPSAT-3)",
        "meta_object_id": "2012-025B",
        "meta_epoch": "2025-12-26T07:07:22.815840",
        "meta_mean_motion": 14.61730108,
        "meta_eccentricity": 0.00046642,
        "meta_inclination": 98.3342,
        "meta_ra_of_asc_node": 314.9897,
        "meta_arg_of_pericenter": 289.6071,
        "meta_mean_anomaly": 70.4626,
        "meta_ephemeris_type": 0,
        "meta_classification_type": "U",
        "meta_norad_cat_id": 38338,
        "meta_element_set_no": 999,
        "meta_rev_at_epoch": 72608,
        "meta_bstar": 0.0001359984,
        "meta_mean_motion_dot": 6.29e-06,
        "meta_mean_motion_ddot": 0,
        "tle_line1": "1 38338U 12025B   25360.29679185  .00000629  00000+0  13600-3 0  9997",
        "tle_line2": "2 38338  98.3342 314.9897 0004664 289.6071  70.4626 14.61730108726089"
      },
      "geometry": {
        "type": "Point",
        "coordinates": [
          136.43149578939403,
          7.681459109971447
        ]
      }
    },
    {
      "type": "Feature",
      "properties": {
        "norad_id": 38709,
        "name": "EXACTVIEW-1 (ADS-1B)",
        "group": "resource",
        "lat": 43.25557249054447,
        "lon": -62.17527087584653,
        "alt_km": 812.3671353477257,
        "timestamp": "2025-12-26T14:28:47.346017+00:00",
        "meta_object_name": "EXACTVIEW-1 (ADS-1B)",
        "meta_object_id": "2012-039C",
        "meta_epoch": "2025-12-26T07:06:08.194752",
        "meta_mean_motion": 14.2491336,
        "meta_eccentricity": 0.00100826,
        "meta_inclination": 98.9638,
        "meta_ra_of_asc_node": 108.9705,
        "meta_arg_of_pericenter": 313.3371,
        "meta_mean_anomaly": 46.6966,
        "meta_ephemeris_type": 0,
        "meta_classification_type": "U",
        "meta_norad_cat_id": 38709,
        "meta_element_set_no": 999,
        "meta_rev_at_epoch": 69808,
        "meta_bstar": 9.1878731e-05,
        "meta_mean_motion_dot": 1.68e-06,
        "meta_mean_motion_ddot": 0,
        "tle_line1": "1 38709U 12039C   25360.29592818  .00000168  00000+0  91879-4 0  9994",
        "tle_line2": "2 38709  98.9638 108.9705 0010082 313.3371  46.6966 14.24913360698085"
      },
      "geometry": {
        "type": "Point",
        "coordinates": [
          -62.17527087584653,
          43.25557249054447
        ]
      }
    }
  ]
}